[Satellite]
VERSION=1.1
NAME=STARLINK-5204
NICKNAME=STARLINK-5204
TLE1=1 54101U 22136BC  22321.58334491  .00034964  00000+0  25234-3 0  9996
TLE2=2 54101  53.2157   9.4343 0004095   8.6274 337.0616 15.73207678  4909
STATUS=0
